NORAD_CAT_ID,OBJECT_NAME,OBJECT_TYPE,EPOCH,MEAN_MOTION,ECCENTRICITY,INCLINATION,RA_OF_ASC_NODE,ARG_OF_PERICENTER,MEAN_ANOMALY,BSTAR,MEAN_MOTION_DOT,MEAN_MOTION_DDOT,TLE_LINE0,TLE_LINE1,TLE_LINE2,SEMIMAJOR_AXIS,PERIOD,APOGEE,PERIGEE,DECAYED
54790.0,STARLINK-5445,PAYLOAD,2023-03-20 16:26:07,15.08850014,0.0001326,53.2188,219.6819,97.3069,262.8074,-1.9601e-05,-6e-06,0.0,0 STARLINK-5445,1 54790U 22175AJ  23079.68480350 -.00000600  00000-0 -19601-4 0  9996,2 54790  53.2188 219.6819 0001326  97.3069 262.8074 15.08850014 16330,6917.85,95.437,540.632,538.797,0.0
54790.0,STARLINK-5445,PAYLOAD,2023-03-21 01:58:25,15.08857697,0.0001239,53.2184,217.895,90.1359,269.9775,-2.8443e-05,-7.41e-06,0.0,0 STARLINK-5445,1 54790U 22175AJ  23080.08223423 -.00000741  00000-0 -28443-4 0  9998,2 54790  53.2184 217.8950 0001239  90.1359 269.9775 15.08857697 14235,6917.826,95.436,540.548,538.834,0.0
54790.0,STARLINK-5445,PAYLOAD,2023-03-21 09:55:22,15.08828739,0.0001628,53.2179,216.4102,97.0702,263.0475,7.6112e-05,9.23e-06,0.0,0 STARLINK-5445,1 54790U 22175AJ  23080.41345303  .00000923  00000-0  76112-4 0  9993,2 54790  53.2179 216.4102 0001628  97.0702 263.0475 15.08828739 14285,6917.915,95.438,540.906,538.654,0.0
54790.0,STARLINK-5445,PAYLOAD,2023-03-21 21:03:03,15.08851702,0.0001536,53.2173,214.3263,94.4455,265.6712,9.5639e-05,1.235e-05,0.0,0 STARLINK-5445,1 54790U 22175AJ  23080.87711810  .00001235  00000-0  95639-4 0  9995,2 54790  53.2173 214.3263 0001536  94.4455 265.6712 15.08851702 16514,6917.845,95.437,540.772,538.647,0.0
54790.0,STARLINK-5445,PAYLOAD,2023-03-22 12:56:56,15.08828908,0.0001655,53.2196,211.3594,55.6732,304.4416,-9.1103e-05,-1.737e-05,0.0,0 STARLINK-5445,1 54790U 22175AJ  23081.53954215 -.00001737  00000-0 -91103-4 0  9998,2 54790  53.2196 211.3594 0001655  55.6732 304.4416 15.08828908 14458,6917.914,95.438,540.924,538.634,0.0
54790.0,STARLINK-5445,PAYLOAD,2023-03-22 16:07:41,15.08846677,0.0001494,53.218,210.761,86.7949,273.3215,9.7519e-06,-1.33e-06,0.0,0 STARLINK-5445,1 54790U 22175AJ  23081.67200507 -.00000133  00000-0  97519-5 0  9997,2 54790  53.2180 210.7610 0001494  86.7949 273.3215 15.08846677 14475,6917.86,95.437,540.759,538.691,0.0
54790.0,STARLINK-5445,PAYLOAD,2023-03-22 20:53:49,15.08857362,0.0001157,53.2166,209.8646,94.8233,265.2891,8.4812e-05,1.063e-05,0.0,0 STARLINK-5445,1 54790U 22175AJ  23081.87071417  .00001063  00000-0  84812-4 0  9998,2 54790  53.2166 209.8646 0001157  94.8233 265.2891 15.08857362 16665,6917.827,95.436,540.493,538.892,0.0
54790.0,STARLINK-5445,PAYLOAD,2023-03-23 01:40:00,15.0883054,4.52e-05,53.2183,208.9751,99.7286,260.3757,-0.0002093,-3.616e-05,0.0,0 STARLINK-5445,1 54790U 22175AJ  23082.06945594 -.00003616  00000-0 -20930-3 0  9994,2 54790  53.2183 208.9751 0000452  99.7286 260.3757 15.08830540 14530,6917.909,95.438,540.087,539.462,0.0
54790.0,STARLINK-5445,PAYLOAD,2023-03-23 14:23:04,15.08841671,0.0001856,53.2169,206.5977,62.3756,297.7425,0.00013372,1.841e-05,0.0,0 STARLINK-5445,1 54790U 22175AJ  23082.59936262  .00001841  00000-0  13372-3 0  9992,2 54790  53.2169 206.5977 0001856  62.3756 297.7425 15.08841671 16776,6917.875,95.437,541.024,538.456,0.0
54790.0,STARLINK-5445,PAYLOAD,2023-03-23 15:58:27,15.08845043,0.0001375,53.2179,206.2976,78.8076,281.307,0.00016979,2.416e-05,0.0,0 STARLINK-5445,1 54790U 22175AJ  23082.66559688  .00002416  00000-0  16979-3 0  9998,2 54790  53.2179 206.2976 0001375  78.8076 281.3070 15.08845043 14620,6917.865,95.437,540.681,538.779,0.0
54790.0,STARLINK-5445,PAYLOAD,2023-03-24 12:38:25,15.08886962,0.0001872,53.2164,202.4335,84.5234,275.5972,0.00019889,2.883e-05,0.0,0 STARLINK-5445,1 54790U 22175AJ  23083.52668496  .00002883  00000-0  19889-3 0  9993,2 54790  53.2164 202.4335 0001872  84.5234 275.5972 15.08886962 14758,6917.737,95.435,540.897,538.307,0.0
54790.0,STARLINK-5445,PAYLOAD,2023-03-24 14:13:47,15.08893295,0.0001209,53.2186,202.1369,92.1428,267.9703,0.00027402,4.082e-05,0.0,0 STARLINK-5445,1 54790U 22175AJ  23083.59291452  .00004082  00000-0  27402-3 0  9997,2 54790  53.2186 202.1369 0001209  92.1428 267.9703 15.08893295 14765,6917.717,95.434,540.419,538.746,0.0
54790.0,STARLINK-5445,PAYLOAD,2023-03-24 18:59:55,15.08910332,0.0001065,53.2177,201.2407,118.4248,241.6852,0.00038434,5.846e-05,0.0,0 STARLINK-5445,1 54790U 22175AJ  23083.79160952  .00005846  00000-0  38434-3 0  9995,2 54790  53.2177 201.2407 0001065 118.4248 241.6852 15.08910332 14799,6917.665,95.433,540.267,538.794,0.0
54790.0,STARLINK-5445,PAYLOAD,2023-03-25 01:21:36,15.08808949,0.0002366,53.2182,200.0547,70.6009,289.5238,-0.00049362,-8.129e-05,0.0,0 STARLINK-5445,1 54790U 22175AJ  23084.05666719 -.00008129  00000-0 -49362-3 0  9998,2 54790  53.2182 200.0547 0002366  70.6009 289.5238 15.08808949 14830,6917.975,95.44,541.477,538.204,0.0
54790.0,STARLINK-5445,PAYLOAD,2023-03-25 12:29:17,15.08814631,8.25e-05,53.2182,197.975,100.0818,260.0267,-0.00012214,-2.23e-05,0.0,0 STARLINK-5445,1 54790U 22175AJ  23084.52034551 -.00002230  00000-0 -12214-3 0  9996,2 54790  53.2182 197.9750 0000825 100.0818 260.0267 15.08814631 14903,6917.958,95.439,540.394,539.252,0.0
54790.0,STARLINK-5445,PAYLOAD,2023-03-25 17:15:26,15.08840938,0.0001206,53.2179,197.0801,74.6367,285.4759,-0.00010514,-1.961e-05,0.0,0 STARLINK-5445,1 54790U 22175AJ  23084.71905192 -.00001961  00000-0 -10514-3 0  9996,2 54790  53.2179 197.0801 0001206  74.6367 285.4759 15.08840938 14935,6917.878,95.437,540.577,538.908,0.0
54790.0,STARLINK-5445,PAYLOAD,2023-03-26 18:41:34,15.08870722,0.0001384,53.2186,192.3229,82.3178,277.7971,-0.00011491,-2.118e-05,0.0,0 STARLINK-5445,1 54790U 22175AJ  23085.77887212 -.00002118  00000-0 -11491-3 0  9995,2 54790  53.2186 192.3229 0001384  82.3178 277.7971 15.08870722 15090,6917.786,95.436,540.609,538.694,0.0
54790.0,STARLINK-5445,PAYLOAD,2023-03-27 10:35:29,15.08781359,0.0001101,53.2182,189.3505,68.5929,291.5181,0.00057554,8.869e-05,0.0,0 STARLINK-5445,1 54790U 22175AJ  23086.44130974  .00008869  00000-0  57554-3 0  9993,2 54790  53.2182 189.3505 0001101  68.5929 291.5181 15.08781359 15191,6918.06,95.441,540.686,539.163,0.0
54790.0,STARLINK-5445,PAYLOAD,2023-03-27 12:10:52,15.0878352,0.0001289,53.2184,189.0532,60.5927,299.5194,0.00060491,9.338e-05,0.0,0 STARLINK-5445,1 54790U 22175AJ  23086.50754951  .00009338  00000-0  60491-3 0  9993,2 54790  53.2184 189.0532 0001289  60.5927 299.5194 15.08783520 17362,6918.053,95.441,540.81,539.026,0.0
54790.0,STARLINK-5445,PAYLOAD,2023-03-27 18:32:22,15.08852184,0.0001031,53.2177,187.8632,91.76,268.351,0.00020834,3.031e-05,0.0,0 STARLINK-5445,1 54790U 22175AJ  23086.77248514  .00003031  00000-0  20834-3 0  9996,2 54790  53.2177 187.8632 0001031  91.7600 268.3510 15.08852184 15244,6917.843,95.437,540.421,538.995,0.0
54790.0,STARLINK-5445,PAYLOAD,2023-03-27 23:18:33,15.08822156,0.0002021,53.2184,186.9784,228.9841,131.0977,-0.00012035,-2.202e-05,0.0,0 STARLINK-5445,1 54790U 22175AJ  23086.97122384 -.00002202  00000-0 -12035-3 0  9999,2 54790  53.2184 186.9784 0002021 228.9841 131.0977 15.08822156 15273,6917.935,95.439,541.198,538.402,0.0
54790.0,STARLINK-5445,PAYLOAD,2023-03-28 13:37:01,15.08845189,0.0001414,53.2184,184.2978,95.1361,264.9793,-2.1677e-06,-3.22e-06,0.0,0 STARLINK-5445,1 54790U 22175AJ  23087.56737756 -.00000322  00000-0 -21677-5 0  9995,2 54790  53.2184 184.2978 0001414  95.1361 264.9793 15.08845189 15368,6917.865,95.437,540.708,538.751,0.0
54790.0,STARLINK-5445,PAYLOAD,2023-03-28 16:47:46,15.08857811,0.0001327,53.2179,183.6997,95.8821,264.2323,7.016e-05,8.29e-06,0.0,0 STARLINK-5445,1 54790U 22175AJ  23087.69984577  .00000829  00000-0  70160-4 0  9994,2 54790  53.2179 183.6997 0001327  95.8821 264.2323 15.08857811 15386,6917.826,95.436,540.609,538.773,0.0
54790.0,STARLINK-5445,PAYLOAD,2023-03-29 10:17:02,15.08848981,0.000111,53.2175,180.4298,96.6136,263.4982,-0.00012853,-2.333e-05,0.0,0 STARLINK-5445,1 54790U 22175AJ  23088.42849711 -.00002333  00000-0 -12853-3 0  9994,2 54790  53.2175 180.4298 0001110  96.6136 263.4982 15.08848981 15491,6917.853,95.437,540.486,538.95,0.0
54790.0,STARLINK-5445,PAYLOAD,2023-03-29 11:52:24,15.08862273,0.0001498,53.2178,180.1326,130.425,229.6873,-2.2898e-05,-6.53e-06,0.0,0 STARLINK-5445,1 54790U 22175AJ  23088.49472431 -.00000653  00000-0 -22898-4 0  9996,2 54790  53.2178 180.1326 0001498 130.4250 229.6873 15.08862273 17660,6917.812,95.436,540.714,538.641,0.0
54790.0,STARLINK-5445,PAYLOAD,2023-03-29 18:13:55,15.08870893,0.0001228,53.2167,178.941,130.4901,229.6198,8.0098e-05,9.88e-06,0.0,0 STARLINK-5445,1 54790U 22175AJ  23088.75967124  .00000988  00000-0  80098-4 0  9998,2 54790  53.2167 178.9410 0001228 130.4901 229.6198 15.08870893 15543,6917.786,95.436,540.5,538.801,0.0
54790.0,STARLINK-5445,PAYLOAD,2023-03-29 23:00:08,15.08828812,0.0001236,53.2177,178.0516,74.1966,285.9163,-0.00029315,-4.949e-05,0.0,0 STARLINK-5445,1 54790U 22175AJ  23088.95842997 -.00004949  00000-0 -29315-3 0  9997,2 54790  53.2177 178.0516 0001236  74.1966 285.9163 15.08828812 15570,6917.915,95.438,540.635,538.925,0.0
54790.0,STARLINK-5445,PAYLOAD,2023-03-30 10:07:51,15.08816031,0.0001311,53.2177,175.9708,92.7707,267.3435,-0.00018406,-3.214e-05,0.0,0 STARLINK-5445,1 54790U 22175AJ  23089.42212033 -.00003214  00000-0 -18406-3 0  9995,2 54790  53.2177 175.9708 0001311  92.7707 267.3435 15.08816031 15646,6917.954,95.439,540.726,538.912,0.0
54790.0,STARLINK-5445,PAYLOAD,2023-03-30 18:04:45,15.08842056,0.000115,53.2173,174.4786,109.5829,250.5287,-0.00011028,-2.043e-05,0.0,0 STARLINK-5445,1 54790U 22175AJ  23089.75330183 -.00002043  00000-0 -11028-3 0  9990,2 54790  53.2173 174.4786 0001150 109.5829 250.5287 15.08842056 15695,6917.874,95.437,540.535,538.944,0.0
54790.0,STARLINK-5445,PAYLOAD,2023-03-31 09:58:36,15.08851894,9.39e-05,53.2171,171.5068,97.9835,262.1264,-5.5395e-05,-1.17e-05,0.0,0 STARLINK-5445,1 54790U 22175AJ  23090.41569489 -.00001170  00000-0 -55395-4 0  9994,2 54790  53.2171 171.5068 0000939  97.9835 262.1264 15.08851894 15790,6917.844,95.437,540.359,539.059,0.0
